GLOBALSTAR M075 [+]     
1 37192U 10054E   24107.54452712 -.00000075  00000+0  16103-3 0  9992
2 37192  51.9970  40.5682 0000661  66.4070 104.4126 12.62272435622491
GLOBALSTAR M073 [+]     
1 37193U 10054F   24107.06910976 -.00000072  00000+0  17646-3 0  9991
2 37193  52.0064 315.5121 0000865  96.7479  72.7913 12.62263751623949
GLOBALSTAR M083 [+]     
1 37739U 11033A   24106.67793600 -.00000050  00000+0  29852-3 0  9992
2 37739  51.9850 266.0164 0000713  87.5184  44.1541 12.62268659592864
GLOBALSTAR M088 [+]     
1 37740U 11033B   24107.18087955 -.00000092  00000+0  63736-4 0  9996
2 37740  51.9719 170.3358 0000400  88.2365 290.5654 12.62267042588765
GLOBALSTAR M091 [+]     
1 37741U 11033C   24106.83182678 -.00000101  00000+0  14957-4 0  9998
2 37741  51.9975 134.1887 0000434  53.3639 118.4501 12.62261572589211
GLOBALSTAR M085 [+]     
1 37742U 11033D   24107.11502230 -.00000096  00000+0  41882-4 0  9991
2 37742  51.9859  84.7411 0000568  48.8521  30.1532 12.62269534590259
GLOBALSTAR M081 [+]     
1 37743U 11033E   24106.97326144 -.00000097  00000+0  37852-4 0  9996
2 37743  51.9951  87.6960 0000657  62.2259 332.2927 12.62264154589896
GLOBALSTAR M089 [+]     
1 37744U 11033F   24107.51827984 -.00000089  00000+0  83441-4 0  9992
2 37744  51.9954  40.3464 0000658 103.5107  67.9640 12.62261883591058
